NORAD_CAT_ID,OBJECT_NAME,OBJECT_TYPE,EPOCH,MEAN_MOTION,ECCENTRICITY,INCLINATION,RA_OF_ASC_NODE,ARG_OF_PERICENTER,MEAN_ANOMALY,BSTAR,MEAN_MOTION_DOT,MEAN_MOTION_DDOT,TLE_LINE0,TLE_LINE1,TLE_LINE2,SEMIMAJOR_AXIS,PERIOD,APOGEE,PERIGEE,DECAYED
49168.0,STARLINK-3101,PAYLOAD,2021-11-20 14:00:01,15.69752788,0.0003979,69.9968,297.1808,286.4998,358.1314,-0.00035424,-0.000423,0.0,0 STARLINK-3101,1 49168U 21082AQ  21324.58334491 -.00042300  00000-0 -35424-3 0  9992,2 49168  69.9968 297.1808 0003979 286.4998 358.1314 15.69752788  3686,6737.741,91.734,362.287,356.925,0.0
49168.0,STARLINK-3101,PAYLOAD,2021-11-20 22:00:00,15.69746154,0.0003922,69.9972,296.2437,281.8668,85.8811,0.0002904,0.00034597,0.0,0 STARLINK-3101,1 49168U 21082AQ  21324.91667824  .00034597  00000-0  29040-3 0  9992,2 49168  69.9972 296.2437 0003922 281.8668  85.8811 15.69746154 11955,6737.76,91.735,362.268,356.983,0.0
49168.0,STARLINK-3101,PAYLOAD,2021-11-21 14:00:01,15.69803646,0.0003883,69.9973,294.3693,286.2197,247.8191,-0.00027321,-0.00032777,0.0,0 STARLINK-3101,1 49168U 21082AQ  21325.58334491 -.00032777  00000-0 -27321-3 0  9997,2 49168  69.9973 294.3693 0003883 286.2197 247.8191 15.69803646  3694,6737.596,91.731,362.077,356.845,0.0
49168.0,STARLINK-3101,PAYLOAD,2021-11-21 22:00:00,15.69824749,0.0003749,69.9978,293.4324,281.7006,335.5003,-0.00057827,-0.00068901,0.0,0 STARLINK-3101,1 49168U 21082AQ  21325.91667824 -.00068901  00000-0 -57827-3 0  9995,2 49168  69.9978 293.4324 0003749 281.7006 335.5003 15.69824749 12111,6737.535,91.73,361.926,356.875,0.0
49168.0,STARLINK-3101,PAYLOAD,2021-11-22 12:00:00,15.69806914,0.000367,69.9973,291.7924,287.3766,25.3598,-0.0010641,-0.00125667,0.0,0 STARLINK-3101,1 49168U 21082AQ  21326.50001157 -.00125667  00000-0 -10641-2 0  9997,2 49168  69.9973 291.7924 0003670 287.3766  25.3598 15.69806914 12208,6737.5859999999975,91.731,361.924,356.97900000000016,0.0
49168.0,STARLINK-3101,PAYLOAD,2021-11-22 22:00:00,15.69719346,0.0003405,69.9978,290.6211,281.746,224.8939,0.00017793,0.00021055,0.0,0 STARLINK-3101,1 49168U 21082AQ  21326.91667824  .00021055  00000-0  17793-3 0  9991,2 49168  69.9978 290.6211 0003405 281.7460 224.8939 15.69719346 12268,6737.837,91.736,361.996,357.408,0.0
49168.0,STARLINK-3101,PAYLOAD,2021-11-23 14:00:01,15.69755369,0.0003394,69.9976,288.747,286.5634,26.2866,-0.00020625,-0.00024767,0.0,0 STARLINK-3101,1 49168U 21082AQ  21327.58334491 -.00024767  00000-0 -20625-3 0  9999,2 49168  69.9976 288.7470 0003394 286.5634  26.2866 15.69755369  3688,6737.734,91.734,361.886,357.31199999999984,0.0
49168.0,STARLINK-3101,PAYLOAD,2021-11-23 22:00:00,15.69767076,0.0003399,69.9981,287.8102,282.3253,113.6447,0.00016123,0.00019093,0.0,0 STARLINK-3101,1 49168U 21082AQ  21327.91667824  .00019093  00000-0  16123-3 0  9997,2 49168  69.9981 287.8102 0003399 282.3253 113.6447 15.69767076  3686,6737.7,91.733,361.856,357.275,0.0
49168.0,STARLINK-3101,PAYLOAD,2021-11-24 06:00:02,15.69774068,0.0003675,69.998,286.8731,287.3569,191.8403,-0.00047012,-0.00056022,0.0,0 STARLINK-3101,1 49168U 21082AQ  21328.25002315 -.00056022  00000-0 -47012-3 0  9999,2 49168  69.9980 286.8731 0003675 287.3569 191.8403 15.69774068 12470,6737.68,91.733,362.022,357.069,0.0
49168.0,STARLINK-3101,PAYLOAD,2021-11-24 14:00:01,15.69743178,0.0003722,69.9976,285.936,283.9168,278.3532,-0.00016398,-0.00019738,0.0,0 STARLINK-3101,1 49168U 21082AQ  21328.58334491 -.00019738  00000-0 -16398-3 0  9994,2 49168  69.9976 285.9360 0003722 283.9168 278.3532 15.69743178  3688,6737.769,91.735,362.142,357.126,0.0
49168.0,STARLINK-3101,PAYLOAD,2021-11-24 22:00:00,15.69758104,0.0003717,69.9978,284.999,279.7124,5.6541,4.929e-05,5.678e-05,0.0,0 STARLINK-3101,1 49168U 21082AQ  21328.91667824  .00005678  00000-0  49290-4 0  9994,2 49168  69.9978 284.9990 0003717 279.7124   5.6541 15.69758104 12582,6737.726,91.734,362.096,357.087,0.0
49168.0,STARLINK-3101,PAYLOAD,2021-11-25 14:00:01,15.69746405,0.0003895,69.9975,283.1248,282.4543,169.1982,-0.00044715,-0.00053255,0.0,0 STARLINK-3101,1 49168U 21082AQ  21329.58334491 -.00053255  00000-0 -44715-3 0  9991,2 49168  69.9975 283.1248 0003895 282.4543 169.1982 15.69746405 12686,6737.76,91.735,362.249,357.0,0.0
49168.0,STARLINK-3101,PAYLOAD,2021-11-25 20:00:01,15.69709895,0.0003857,69.9978,282.4222,278.8559,145.1275,0.00053621,0.00064191,0.0,0 STARLINK-3101,1 49168U 21082AQ  21329.83334491  .00064191  00000-0  53621-3 0  9994,2 49168  69.9978 282.4222 0003857 278.8559 145.1275 15.69709895 12723,6737.864000000001,91.737,362.328,357.13,0.0
49168.0,STARLINK-3101,PAYLOAD,2021-11-26 06:00:02,15.69726557,0.000401,69.9979,281.2508,284.4951,333.4412,0.00042669,0.00050993,0.0,0 STARLINK-3101,1 49168U 21082AQ  21330.25002315  .00050993  00000-0  42669-3 0  9994,2 49168  69.9979 281.2508 0004010 284.4951 333.4412 15.69726557 12795,6737.816,91.736,362.383,356.98,0.0
49168.0,STARLINK-3101,PAYLOAD,2021-11-26 14:00:01,15.69753041,0.0003913,69.9974,280.3137,280.6959,60.3619,-1.9711e-06,-4.48e-06,0.0,0 STARLINK-3101,1 49168U 21082AQ  21330.58335648 -.00000448  00000-0 -19711-5 0  9994,2 49168  69.9974 280.3137 0003913 280.6959  60.3619 15.69753041  3686,6737.741,91.734,362.242,356.969,0.0
49168.0,STARLINK-3101,PAYLOAD,2021-11-26 22:00:00,15.69816455,0.0003832,69.9975,279.3768,278.615,145.5033,-0.00096112,-0.00113736,0.0,0 STARLINK-3101,1 49168U 21082AQ  21330.91667824 -.00113736  00000-0 -96112-3 0  9998,2 49168  69.9975 279.3768 0003832 278.6150 145.5033 15.69816455 12893,6737.559,91.73,362.006,356.842,0.0
49168.0,STARLINK-3101,PAYLOAD,2021-11-27 14:00:01,15.69737546,0.0003646,69.9971,277.5026,281.4494,308.9312,3.3447e-05,3.78e-05,0.0,0 STARLINK-3101,1 49168U 21082AQ  21331.58334491  .00003780  00000-0  33447-4 0  9991,2 49168  69.9971 277.5026 0003646 281.4494 308.9312 15.69737546 12991,6737.785,91.735,362.107,357.1930000000001,0.0
49168.0,STARLINK-3101,PAYLOAD,2021-11-27 22:00:00,15.69776716,0.0003666,69.9976,276.5656,277.8719,35.6157,-6.3272e-06,-9.69e-06,0.0,0 STARLINK-3101,1 49168U 21082AQ  21331.91667824 -.00000969  00000-0 -63272-5 0  9995,2 49168  69.9976 276.5656 0003666 277.8719  35.6157 15.69776716  3673,6737.6730000000025,91.733,362.008,357.0680000000001,0.0
49168.0,STARLINK-3101,PAYLOAD,2021-11-28 06:00:02,15.69771512,0.0003652,69.9974,275.6283,284.1272,112.5778,3.0409e-05,3.423e-05,0.0,0 STARLINK-3101,1 49168U 21082AQ  21332.25002315  .00003423  00000-0  30409-4 0  9992,2 49168  69.9974 275.6283 0003652 284.1272 112.5778 15.69771512 13109,6737.688,91.733,362.013,357.092,0.0
49168.0,STARLINK-3101,PAYLOAD,2021-11-28 14:00:01,15.69740875,0.0003453,69.9971,274.6912,279.91,199.9014,-7.5354e-05,-9.195e-05,0.0,0 STARLINK-3101,1 49168U 21082AQ  21332.58334491 -.00009195  00000-0 -75354-4 0  9993,2 49168  69.9971 274.6912 0003453 279.9100 199.9014 15.69740875  3687,6737.775,91.735,361.967,357.314,0.0
49168.0,STARLINK-3101,PAYLOAD,2021-11-28 22:00:01,15.6976989,0.0003393,69.9971,273.7543,277.3675,285.6144,-5.1301e-05,-6.337e-05,0.0,0 STARLINK-3101,1 49168U 21082AQ  21332.91668981 -.00006337  00000-0 -51301-4 0  9995,2 49168  69.9971 273.7543 0003393 277.3675 285.6144 15.69769890 13203,6737.691999999999,91.733,361.843,357.271,0.0
49168.0,STARLINK-3101,PAYLOAD,2021-11-29 14:00:01,15.69720877,0.0003603,69.9969,271.8797,277.9383,91.2943,0.0001013,0.00011884,0.0,0 STARLINK-3101,1 49168U 21082AQ  21333.58334491  .00011884  00000-0  10130-3 0  9990,2 49168  69.9969 271.8797 0003603 277.9383  91.2943 15.69720877  3698,6737.833000000001,91.736,362.125,357.27,0.0
49168.0,STARLINK-3101,PAYLOAD,2021-11-29 22:00:00,15.69763938,0.0003649,69.9974,270.9426,276.2352,176.0896,-1.6081e-05,-2.133e-05,0.0,0 STARLINK-3101,1 49168U 21082AQ  21333.91667824 -.00002133  00000-0 -16081-4 0  9997,2 49168  69.9974 270.9426 0003649 276.2352 176.0896 15.69763938  3707,6737.709,91.734,362.033,357.116,0.0
49168.0,STARLINK-3101,PAYLOAD,2021-11-30 06:00:00,15.69759568,0.000358,69.9974,270.0054,282.1773,253.2864,-0.00027728,-0.00033198,0.0,0 STARLINK-3101,1 49168U 21082AQ  21334.25001157 -.00033198  00000-0 -27728-3 0  9990,2 49168  69.9974 270.0054 0003580 282.1773 253.2864 15.69759568 13418,6737.722,91.734,361.999,357.175,0.0
49168.0,STARLINK-3101,PAYLOAD,2021-11-30 10:00:00,15.69750457,0.0003465,69.997,269.5368,281.2688,115.7548,-0.00050259,-0.00059788,0.0,0 STARLINK-3101,1 49168U 21082AQ  21334.41667824 -.00059788  00000-0 -50259-3 0  9995,2 49168  69.9970 269.5368 0003465 281.2688 115.7548 15.69750457  3678,6737.748000000001,91.734,361.948,357.278,0.0
49168.0,STARLINK-3101,PAYLOAD,2021-11-30 22:00:00,15.69759169,0.0003416,69.9974,268.1314,276.1825,65.4748,-0.00020997,-0.00025213,0.0,0 STARLINK-3101,1 49168U 21082AQ  21334.91667824 -.00025213  00000-0 -20997-3 0  9992,2 49168  69.9974 268.1314 0003416 276.1825  65.4748 15.69759169  3694,6737.723000000001,91.734,361.89,357.286,0.0
49168.0,STARLINK-3101,PAYLOAD,2021-12-01 06:00:00,15.69751602,0.000355,69.9971,267.1941,282.0253,142.7572,-0.00035835,-0.00042779,0.0,0 STARLINK-3101,1 49168U 21082AQ  21335.25001157 -.00042779  00000-0 -35835-3 0  9994,2 49168  69.9971 267.1941 0003550 282.0253 142.7572 15.69751602 13572,6737.745,91.734,362.002,357.218,0.0
49168.0,STARLINK-3101,PAYLOAD,2021-12-01 14:00:01,15.696782999999998,0.0003681,69.9972,266.2568,276.2712,231.6415,0.00044378,0.00052947,0.0,0 STARLINK-3101,1 49168U 21082AQ  21335.58334491  .00052947  00000-0  44378-3 0  9998,2 49168  69.9972 266.2568 0003681 276.2712 231.6415 15.69678300  3697,6737.954000000002,91.739,362.3,357.339,0.0
49168.0,STARLINK-3101,PAYLOAD,2021-12-01 22:00:00,15.69744205,0.0003686,69.9977,265.3199,274.4842,316.4879,-4.0954e-05,-5.098e-05,0.0,0 STARLINK-3101,1 49168U 21082AQ  21335.91667824 -.00005098  00000-0 -40954-4 0  9998,2 49168  69.9977 265.3199 0003686 274.4842 316.4879 15.69744205 13674,6737.766,91.735,362.114,357.147,0.0
